{"type": "FeatureCollection", "features": [ {"type": "Feature", "properties": {"norad_id": 66930, "name": "STARLINK-36206", "group": "last-30-days", "lat": -36.97385011717596, "lon": -57.381414854388126, "alt_km": 419.1973807651748, "timestamp": "2025-12-27T12:55:13.196773+00:00", "meta": {"OBJECT_NAME": "STARLINK-36206", "OBJECT_ID": "2025-286F", "EPOCH": "2025-12-27T06:00:02.000160", "MEAN_MOTION": 15.51936206, "ECCENTRICITY": 0.00012656, "INCLINATION": 53.1594, "RA_OF_ASC_NODE": 338.3647, "ARG_OF_PERICENTER": 85.9774, "MEAN_ANOMALY": 54.1732, "EPHEMERIS_TYPE": 0, "CLASSIFICATION_TYPE": "U", "NORAD_CAT_ID": 66930, "ELEMENT_SET_NO": 999, "REV_AT_EPOCH": 432, "BSTAR": -0.032572985, "MEAN_MOTION_DOT": -0.01769642, "MEAN_MOTION_DDOT": 0}, "tle": {"line1": "1 66930U 25286F   25361.25002315 -.01769642  00000+0 -32573-1 0  9999", "line2": "2 66930  53.1594 338.3647 0001265  85.9774  54.1732 15.51936206  4320"}}, "geometry": {"type": "Point", "coordinates": [-57.381414854388126, -36.97385011717596]}}, {"type": "Feature", "properties": {"norad_id": 66931, "name": "STARLINK-36130", "group": "last-30-days", "lat": -35.698848665123215, "lon": -55.618014526773216, "alt_km": 419.03755113170973, "timestamp": "2025-12-27T12:55:13.196783+00:00", "meta": {"OBJECT_NAME": "STARLINK-36130", "OBJECT_ID": "2025-286G", "EPOCH": "2025-12-27T06:00:02.000160", "MEAN_MOTION": 15.51939168, "ECCENTRICITY": 0.00012934, "INCLINATION": 53.1591, "RA_OF_ASC_NODE": 338.3621, "ARG_OF_PERICENTER": 74.1826, "MEAN_ANOMALY": 67.8899, "EPHEMERIS_TYPE": 0, "CLASSIFICATION_TYPE": "U", "NORAD_CAT_ID": 66931, "ELEMENT_SET_NO": 999, "REV_AT_EPOCH": 432, "BSTAR": -0.033134092, "MEAN_MOTION_DOT": -0.01796895, "MEAN_MOTION_DDOT": 0}, "tle": {"line1": "1 66931U 25286G   25361.25002315 -.01796895  00000+0 -33134-1 0  9994", "line2": "2 66931  53.1591 338.3621 0001293  74.1826  67.8899 15.51939168  4324"}}, "geometry": {"type": "Point", "coordinates": [-55.618014526773216, -35.698848665123215]}}, {"type": "Feature", "properties": {"norad_id": 66932, "name": "STARLINK-36177", "group": "last-30-days", "lat": -34.394262118247156, "lon": -53.90714219328032, "alt_km": 419.05673552581175, "timestamp": "2025-12-27T12:55:13.196793+00:00", "meta": {"OBJECT_NAME": "STARLINK-36177", "OBJECT_ID": "2025-286H", "EPOCH": "2025-12-27T06:00:02.000160", "MEAN_MOTION": 15.51941242, "ECCENTRICITY": 0.00013254, "INCLINATION": 53.1595, "RA_OF_ASC_NODE": 338.3563, "ARG_OF_PERICENTER": 87.5185, "MEAN_ANOMALY": 56.4621, "EPHEMERIS_TYPE": 0, "CLASSIFICATION_TYPE": "U", "NORAD_CAT_ID": 66932, "ELEMENT_SET_NO": 999, "REV_AT_EPOCH": 432, "BSTAR": -0.032653508, "MEAN_MOTION_DOT": -0.01773853, "MEAN_MOTION_DDOT": 0}, "tle": {"line1": "1 66932U 25286H   25361.25002315 -.01773853  00000+0 -32654-1 0  9990", "line2": "2 66932  53.1595 338.3563 0001325  87.5185  56.4621 15.51941242  4329"}}, "geometry": {"type": "Point", "coordinates": [-53.90714219328032, -34.394262118247156]}}, {"type": "Feature", "properties": {"norad_id": 66933, "name": "STARLINK-36157", "group": "last-30-days", "lat": -33.070074634089266, "lon": -52.25247766650889, "alt_km": 418.9091713473572, "timestamp": "2025-12-27T12:55:13.196805+00:00", "meta": {"OBJECT_NAME": "STARLINK-36157", "OBJECT_ID": "2025-286J", "EPOCH": "2025-12-27T06:00:02.000160", "MEAN_MOTION": 15.51937498, "ECCENTRICITY": 0.00014287, "INCLINATION": 53.1594, "RA_OF_ASC_NODE": 338.3525, "ARG_OF_PERICENTER": 79.7025, "MEAN_ANOMALY": 66.1969, "EPHEMERIS_TYPE": 0, "CLASSIFICATION_TYPE": "U", "NORAD_CAT_ID": 66933, "ELEMENT_SET_NO": 999, "REV_AT_EPOCH": 432, "BSTAR": -0.032558121, "MEAN_MOTION_DOT": -0.01769085, "MEAN_MOTION_DDOT": 0}, "tle": {"line1": "1 66933U 25286J   25361.25002315 -.01769085  00000+0 -32558-1 0  9996", "line2": "2 66933  53.1594 338.3525 0001428  79.7025  66.1969 15.51937498  4328"}}, "geometry": {"type": "Point", "coordinates": [-52.25247766650889, -33.070074634089266]}}, {"type": "Feature", "properties": {"norad_id": 66934, "name": "STARLINK-36153", "group": "last-30-days", "lat": -31.723844047328157, "lon": -50.64630747537264, "alt_km": 418.7061789241325, "timestamp": "2025-12-27T12:55:13.196815+00:00", "meta": {"OBJECT_NAME": "STARLINK-36153", "OBJECT_ID": "2025-286K", "EPOCH": "2025-12-27T06:00:02.000160", "MEAN_MOTION": 15.51938456, "ECCENTRICITY": 0.00014406, "INCLINATION": 53.1592, "RA_OF_ASC_NODE": 338.349, "ARG_OF_PERICENTER": 70.6169, "MEAN_ANOMALY": 77.2032, "EPHEMERIS_TYPE": 0, "CLASSIFICATION_TYPE": "U", "NORAD_CAT_ID": 66934, "ELEMENT_SET_NO": 999, "REV_AT_EPOCH": 432, "BSTAR": -0.032843246, "MEAN_MOTION_DOT": -0.01782917, "MEAN_MOTION_DDOT": 0}, "tle": {"line1": "1 66934U 25286K   25361.25002315 -.01782917  00000+0 -32843-1 0  9993", "line2": "2 66934  53.1592 338.3490 0001440  70.6169  77.2032 15.51938456  4320"}}, "geometry": {"type": "Point", "coordinates": [-50.64630747537264, -31.723844047328157]}}, {"type": "Feature", "properties": {"norad_id": 66935, "name": "STARLINK-36127", "group": "last-30-days", "lat": -30.354616944070436, "lon": -49.0837744931978, "alt_km": 418.8126282433868, "timestamp": "2025-12-27T12:55:13.196825+00:00", "meta": {"OBJECT_NAME": "STARLINK-36127", "OBJECT_ID": "2025-286L", "EPOCH": "2025-12-27T06:00:02.000160", "MEAN_MOTION": 15.51934576, "ECCENTRICITY": 0.00014273, "INCLINATION": 53.1595, "RA_OF_ASC_NODE": 338.344, "ARG_OF_PERICENTER": 88.5542, "MEAN_ANOMALY": 61.1829, "EPHEMERIS_TYPE": 0, "CLASSIFICATION_TYPE": "U", "NORAD_CAT_ID": 66935, "ELEMENT_SET_NO": 999, "REV_AT_EPOCH": 432, "BSTAR": -0.032568472, "MEAN_MOTION_DOT": -0.01769418, "MEAN_MOTION_DDOT": 0}, "tle": {"line1": "1 66935U 25286L   25361.25002315 -.01769418  00000+0 -32568-1 0  9999", "line2": "2 66935  53.1595 338.3440 0001427  88.5542  61.1829 15.51934576  4322"}}, "geometry": {"type": "Point", "coordinates": [-49.0837744931978, -30.354616944070436]}}, {"type": "Feature", "properties": {"norad_id": 66936, "name": "STARLINK-36160", "group": "last-30-days", "lat": -28.970712391607005, "lon": -47.566991978497605, "alt_km": 418.6564069629867, "timestamp": "2025-12-27T12:55:13.196838+00:00", "meta": {"OBJECT_NAME": "STARLINK-36160", "OBJECT_ID": "2025-286M", "EPOCH": "2025-12-27T06:00:02.000160", "MEAN_MOTION": 15.51934533, "ECCENTRICITY": 0.00014035, "INCLINATION": 53.1596, "RA_OF_ASC_NODE": 338.3408, "ARG_OF_PERICENTER": 86.6917, "MEAN_ANOMALY": 64.9597, "EPHEMERIS_TYPE": 0, "CLASSIFICATION_TYPE": "U", "NORAD_CAT_ID": 66936, "ELEMENT_SET_NO": 999, "REV_AT_EPOCH": 432, "BSTAR": -0.032505066, "MEAN_MOTION_DOT": -0.01766337, "MEAN_MOTION_DDOT": 0}, "tle": {"line1": "1 66936U 25286M   25361.25002315 -.01766337  00000+0 -32505-1 0  9998", "line2": "2 66936  53.1596 338.3408 0001403  86.6917  64.9597 15.51934533  4323"}}, "geometry": {"type": "Point", "coordinates": [-47.566991978497605, -28.970712391607005]}}, {"type": "Feature", "properties": {"norad_id": 66937, "name": "STARLINK-36165", "group": "last-30-days", "lat": -27.56789838037737, "lon": -46.08941392031948, "alt_km": 418.47826190552496, "timestamp": "2025-12-27T12:55:13.196850+00:00", "meta": {"OBJECT_NAME": "STARLINK-36165", "OBJECT_ID": "2025-286N", "EPOCH": "2025-12-27T06:00:02.000160", "MEAN_MOTION": 15.5193443, "ECCENTRICITY": 0.000134, "INCLINATION": 53.1597, "RA_OF_ASC_NODE": 338.3364, "ARG_OF_PERICENTER": 84.5148, "MEAN_ANOMALY": 69.0538, "EPHEMERIS_TYPE": 0, "CLASSIFICATION_TYPE": "U", "NORAD_CAT_ID": 66937, "ELEMENT_SET_NO": 999, "REV_AT_EPOCH": 432, "BSTAR": -0.032458427, "MEAN_MOTION_DOT": -0.01764041, "MEAN_MOTION_DDOT": 0}, "tle": {"line1": "1 66937U 25286N   25361.25002315 -.01764041  00000+0 -32458-1 0  9996", "line2": "2 66937  53.1597 338.3364 0001340  84.5148  69.0538 15.51934430  4326"}}, "geometry": {"type": "Point", "coordinates": [-46.08941392031948, -27.56789838037737]}}, {"type": "Feature", "properties": {"norad_id": 66938, "name": "STARLINK-36155", "group": "last-30-days", "lat": -26.150676799691162, "lon": -44.65074376529353, "alt_km": 418.3261144711969, "timestamp": "2025-12-27T12:55:13.196862+00:00", "meta": {"OBJECT_NAME": "STARLINK-36155", "OBJECT_ID": "2025-286P", "EPOCH": "2025-12-27T06:00:02.000160", "MEAN_MOTION": 15.51933144, "ECCENTRICITY": 0.00013615, "INCLINATION": 53.1596, "RA_OF_ASC_NODE": 338.3318, "ARG_OF_PERICENTER": 81.5959, "MEAN_ANOMALY": 73.8917, "EPHEMERIS_TYPE": 0, "CLASSIFICATION_TYPE": "U", "NORAD_CAT_ID": 66938, "ELEMENT_SET_NO": 999, "REV_AT_EPOCH": 432, "BSTAR": -0.032481231, "MEAN_MOTION_DOT": -0.01765083, "MEAN_MOTION_DDOT": 0}, "tle": {"line1": "1 66938U 25286P   25361.25002315 -.01765083  00000+0 -32481-1 0  9990", "line2": "2 66938  53.1596 338.3318 0001361  81.5959  73.8917 15.51933144  4320"}}, "geometry": {"type": "Point", "coordinates": [-44.65074376529353, -26.150676799691162]}}, {"type": "Feature", "properties": {"norad_id": 66939, "name": "STARLINK-36154", "group": "last-30-days", "lat": -23.2765385735171, "lon": -41.875028876689406, "alt_km": 418.14063984009135, "timestamp": "2025-12-27T12:55:13.196872+00:00", "meta": {"OBJECT_NAME": "STARLINK-36154", "OBJECT_ID": "2025-286Q", "EPOCH": "2025-12-27T06:00:02.000160", "MEAN_MOTION": 15.51935992, "ECCENTRICITY": 0.00014402, "INCLINATION": 53.1594, "RA_OF_ASC_NODE": 338.3239, "ARG_OF_PERICENTER": 85.8497, "MEAN_ANOMALY": 73.4696, "EPHEMERIS_TYPE": 0, "CLASSIFICATION_TYPE": "U", "NORAD_CAT_ID": 66939, "ELEMENT_SET_NO": 999, "REV_AT_EPOCH": 432, "BSTAR": -0.032632871, "MEAN_MOTION_DOT": -0.01772618, "MEAN_MOTION_DDOT": 0}, "tle": {"line1": "1 66939U 25286Q   25361.25002315 -.01772618  00000+0 -32633-1 0  9992", "line2": "2 66939  53.1594 338.3239 0001440  85.8497  73.4696 15.51935992  4326"}}, "geometry": {"type": "Point", "coordinates": [-41.875028876689406, -23.2765385735171]}}]}